GLOBALSTAR M075 [+]     
1 37192U 10054E   24109.97933674 -.00000074  00000+0  16631-3 0  9997
2 37192  51.9972  33.1553 0000702  68.8385  11.5782 12.62272618622803
GLOBALSTAR M088 [+]     
1 37740U 11033B   24110.11036545 -.00000077  00000+0  15005-3 0  9990
2 37740  51.9713 161.4116 0000386  83.6908 293.6579 12.62267159589138
GLOBALSTAR M085 [+]     
1 37742U 11033D   24110.20829267 -.00000078  00000+0  14246-3 0  9990
2 37742  51.9867  75.3208 0000653  51.3485  50.8485 12.62269714590640
GLOBALSTAR M081 [+]     
1 37743U 11033E   24110.23525493 -.00000087  00000+0  94491-4 0  9999
2 37743  51.9959  77.7641 0000735  63.4494  41.2708 12.62264262590684
GLOBALSTAR M089 [+]     
1 37744U 11033F   24110.20515366 -.00000077  00000+0  14901-3 0  9991
2 37744  51.9956  32.1659 0000669 104.1469  42.8067 12.62262105591395
